COSMOS 2251 DEB         
1 34970U 93036AEZ 17345.47553391  .00006572  00000-0  50545-3 0  9993
2 34970  73.9950 266.9506 0021182  33.9568 326.2971 15.01720732250487
